[{"OBJECT_NAME":"SEEDS II (CO-66)","OBJECT_ID":"2008-021J","EPOCH":"2026-03-09T22:06:22.421376","MEAN_MOTION":15.29097236,"ECCENTRICITY":0.00014475,"INCLINATION":97.7519,"RA_OF_ASC_NODE":62.3611,"ARG_OF_PERICENTER":359.2618,"MEAN_ANOMALY":0.8619,"EPHEMERIS_TYPE":0,"CLASSIFICATION_TYPE":"U","NORAD_CAT_ID":32791,"ELEMENT_SET_NO":999,"REV_AT_EPOCH":97210,"BSTAR":0.00084213052,"MEAN_MOTION_DOT":0.00023758,"MEAN_MOTION_DDOT":0},{"OBJECT_NAME":"STARLINK-35952","OBJECT_ID":"2025-265E","EPOCH":"2026-03-09T13:47:57.336288","MEAN_MOTION":15.27588666,"ECCENTRICITY":6.41e-5,"INCLINATION":43.0004,"RA_OF_ASC_NODE":278.7826,"ARG_OF_PERICENTER":301.9847,"MEAN_ANOMALY":58.0942,"EPHEMERIS_TYPE":0,"CLASSIFICATION_TYPE":"U","NORAD_CAT_ID":66520,"ELEMENT_SET_NO":999,"REV_AT_EPOCH":1709,"BSTAR":0.0010985,"MEAN_MOTION_DOT":0.00030098,"MEAN_MOTION_DDOT":0}]
